NORAD_CAT_ID,OBJECT_NAME,OBJECT_TYPE,EPOCH,MEAN_MOTION,ECCENTRICITY,INCLINATION,RA_OF_ASC_NODE,ARG_OF_PERICENTER,MEAN_ANOMALY,BSTAR,MEAN_MOTION_DOT,MEAN_MOTION_DDOT,TLE_LINE0,TLE_LINE1,TLE_LINE2,SEMIMAJOR_AXIS,PERIOD,APOGEE,PERIGEE,DECAYED
51465.0,STARLINK-3401,PAYLOAD,2023-03-29 10:05:08,15.08859783,0.0001054,53.2151,70.678,101.6197,258.4913,0.00043099,6.582e-05,0.0,0 STARLINK-3401,1 51465U 22010K   23088.42023259  .00006582  00000-0  43099-3 0  9993,2 51465  53.2151  70.6780 0001054 101.6197 258.4913 15.08859783 64841,6917.82,95.436,540.414,538.956,0.0
51465.0,STARLINK-3401,PAYLOAD,2023-03-29 22:48:14,15.08837127,0.00012,53.2143,68.3004,96.5287,263.5842,5.7049e-05,6.2e-06,0.0,0 STARLINK-3401,1 51465U 22010K   23088.95016310  .00000620  00000-0  57049-4 0  9999,2 51465  53.2143  68.3004 0001200  96.5287 263.5842 15.08837127 64925,6917.889,95.438,540.584,538.924,0.0
51465.0,STARLINK-3401,PAYLOAD,2023-03-30 09:55:55,15.0885291,0.0001131,53.2153,66.219,88.8339,271.2782,0.00045288,6.93e-05,0.0,0 STARLINK-3401,1 51465U 22010K   23089.41383885  .00006930  00000-0  45288-3 0  9996,2 51465  53.2153  66.2190 0001131  88.8339 271.2782 15.08852910 64997,6917.841,95.437,540.488,538.924,0.0
51465.0,STARLINK-3401,PAYLOAD,2023-03-31 05:00:33,15.08852024,0.0001294,53.2149,62.6502,92.7572,267.3569,0.0012513,0.00019689,0.0,0 STARLINK-3401,1 51465U 22010K   23090.20872456  .00019689  00000-0  12513-2 0  9991,2 51465  53.2149  62.6502 0001294  92.7572 267.3569 15.08852024 65112,6917.844,95.437,540.604,538.813,0.0
51465.0,STARLINK-3401,PAYLOAD,2023-03-31 08:11:19,15.08866035,0.0001235,53.2158,62.0556,92.3969,267.7164,0.0013785,0.00021735,0.0,0 STARLINK-3401,1 51465U 22010K   23090.34120136  .00021735  00000-0  13785-2 0  9994,2 51465  53.2158  62.0556 0001235  92.3969 267.7164 15.08866035 65130,6917.801,95.436,540.52,538.811,0.0
51465.0,STARLINK-3401,PAYLOAD,2023-04-01 04:51:20,15.08857063,0.0001305,53.2157,58.1904,113.9556,246.1572,0.0016128,0.00025485,0.0,0 STARLINK-3401,1 51465U 22010K   23091.20232347  .00025485  00000-0  16128-2 0  9998,2 51465  53.2157  58.1904 0001305 113.9556 246.1572 15.08857063 65261,6917.828,95.436,540.596,538.79,0.0
51465.0,STARLINK-3401,PAYLOAD,2023-04-01 08:02:06,15.08863728,0.0001266,53.2158,57.5953,111.5316,248.5811,0.0016838,0.00026629,0.0,0 STARLINK-3401,1 51465U 22010K   23091.33480161  .00026629  00000-0  16838-2 0  9990,2 51465  53.2158  57.5953 0001266 111.5316 248.5811 15.08863728 65282,6917.808,95.436,540.549,538.797,0.0
51465.0,STARLINK-3401,PAYLOAD,2023-04-02 04:42:08,15.08835526,0.0001397,53.2162,53.7304,109.7673,250.347,0.00061714,9.546e-05,0.0,0 STARLINK-3401,1 51465U 22010K   23092.19593026  .00009546  00000-0  61714-3 0  9993,2 51465  53.2162  53.7304 0001397 109.7673 250.3470 15.08835526 65417,6917.894,95.438,540.725,538.793,0.0
51465.0,STARLINK-3401,PAYLOAD,2023-04-03 06:08:18,15.08856228,0.0001214,53.215,48.9718,105.0168,255.0958,0.0008317,0.00012979,0.0,0 STARLINK-3401,1 51465U 22010K   23093.25576816  .00012979  00000-0  83170-3 0  9993,2 51465  53.2150  48.9718 0001214 105.0168 255.0958 15.08856228 65577,6917.831,95.437,540.536,538.856,0.0
51465.0,STARLINK-3401,PAYLOAD,2023-04-04 04:23:42,15.08854355,0.0001335,53.2163,44.8102,92.3092,267.8053,0.00045242,6.922e-05,0.0,0 STARLINK-3401,1 51465U 22010K   23094.18312668  .00006922  00000-0  45242-3 0  9998,2 51465  53.2163  44.8102 0001335  92.3092 267.8053 15.08854355 65713,6917.837,95.437,540.625,538.778,0.0
51465.0,STARLINK-3401,PAYLOAD,2023-04-05 05:49:52,15.08846449,0.0001278,53.2162,40.0489,107.9083,252.2049,0.00082234,0.00012826,0.0,0 STARLINK-3401,1 51465U 22010K   23095.24296894  .00012826  00000-0  82234-3 0  9990,2 51465  53.2162  40.0489 0001278 107.9083 252.2049 15.08846449 65872,6917.861,95.437,540.61,538.842,0.0
51465.0,STARLINK-3401,PAYLOAD,2023-04-06 05:40:39,15.08848848,0.0001523,53.2175,35.5861,109.3808,250.7349,0.0004033,6.138e-05,0.0,0 STARLINK-3401,1 51465U 22010K   23096.23656575  .00006138  00000-0  40330-3 0  9996,2 51465  53.2175  35.5861 0001523 109.3808 250.7349 15.08848848 66022,6917.853,95.437,540.772,538.665,0.0
51465.0,STARLINK-3401,PAYLOAD,2023-04-07 05:31:26,15.08843154,0.0001223,53.217,31.1293,88.2548,271.8584,0.00019097,2.753e-05,0.0,0 STARLINK-3401,1 51465U 22010K   23097.23017261  .00002753  00000-0  19097-3 0  9995,2 51465  53.2170  31.1293 0001223  88.2548 271.8584 15.08843154 66177,6917.871,95.437,540.582,538.89,0.0
51465.0,STARLINK-3401,PAYLOAD,2023-04-08 05:22:13,15.08851814,0.0001347,53.2171,26.6684,87.0665,273.0482,0.00031414,4.717e-05,0.0,0 STARLINK-3401,1 51465U 22010K   23098.22376962  .00004717  00000-0  31414-3 0  9990,2 51465  53.2171  26.6684 0001347  87.0665 273.0482 15.08851814 66325,6917.844,95.437,540.641,538.777,0.0
51465.0,STARLINK-3401,PAYLOAD,2023-04-08 19:40:42,15.08840213,0.0001475,53.2175,23.9918,93.7693,266.3468,4.1103e-05,3.66e-06,0.0,0 STARLINK-3401,1 51465U 22010K   23098.81993345  .00000366  00000-0  41103-4 0  9998,2 51465  53.2175  23.9918 0001475  93.7693 266.3468 15.08840213 66416,6917.88,95.438,540.765,538.724,0.0
51465.0,STARLINK-3401,PAYLOAD,2023-04-09 03:37:38,15.0884076,0.0001179,53.2175,22.5061,78.1935,281.9189,8.0944e-05,1.001e-05,0.0,0 STARLINK-3401,1 51465U 22010K   23099.15113472  .00001001  00000-0  80944-4 0  9994,2 51465  53.2175  22.5061 0001179  78.1935 281.9189 15.08840760 66462,6917.878,95.438,540.559,538.927,0.0
51465.0,STARLINK-3401,PAYLOAD,2023-04-10 05:03:47,15.08851065,0.0001151,53.2169,17.7485,82.8328,277.2795,0.00024843,3.669e-05,0.0,0 STARLINK-3401,1 51465U 22010K   23100.21097176  .00003669  00000-0  24843-3 0  9993,2 51465  53.2169  17.7485 0001151  82.8328 277.2795 15.08851065 66628,6917.847,95.437,540.508,538.915,0.0
51465.0,STARLINK-3401,PAYLOAD,2023-04-10 19:22:16,15.08844097,0.0001407,53.2168,15.0714,80.313,279.8022,0.00019404,2.802e-05,0.0,0 STARLINK-3401,1 51465U 22010K   23100.80713530  .00002802  00000-0  19404-3 0  9992,2 51465  53.2168  15.0714 0001407  80.3130 279.8022 15.08844097 66719,6917.868,95.437,540.706,538.76,0.0
51465.0,STARLINK-3401,PAYLOAD,2023-04-11 04:54:35,15.08848514,0.0001303,53.2167,13.2869,85.243,274.8711,0.00022335,3.269e-05,0.0,0 STARLINK-3401,1 51465U 22010K   23101.20457202  .00003269  00000-0  22335-3 0  9993,2 51465  53.2167  13.2869 0001303  85.2430 274.8711 15.08848514 66775,6917.854,95.437,540.621,538.818,0.0
51465.0,STARLINK-3401,PAYLOAD,2023-04-12 01:34:36,15.08838134,0.0001574,53.2183,9.4203,75.1955,284.9211,1.049e-05,-1.21e-06,0.0,0 STARLINK-3401,1 51465U 22010K   23102.06570081 -.00000121  00000-0  10490-4 0  9994,2 51465  53.2183   9.4203 0001574  75.1955 284.9211 15.08838134 66901,6917.886,95.438,540.84,538.662,0.0
51465.0,STARLINK-3401,PAYLOAD,2023-04-12 23:50:00,15.08842619,0.0001445,53.2178,5.2601,85.0944,275.0213,0.00014194,1.972e-05,0.0,0 STARLINK-3401,1 51465U 22010K   23102.99306106  .00001972  00000-0  14194-3 0  9999,2 51465  53.2178   5.2601 0001445  85.0944 275.0213 15.08842619 67048,6917.872,95.437,540.737,538.738,0.0
51465.0,STARLINK-3401,PAYLOAD,2023-04-13 20:30:01,15.0884637,0.0001502,53.2183,1.3974,78.0905,282.0256,0.00024551,3.622e-05,0.0,0 STARLINK-3401,1 51465U 22010K   23103.85418087  .00003622  00000-0  24551-3 0  9999,2 51465  53.2183   1.3974 0001502  78.0905 282.0256 15.08846370 67174,6917.861,95.437,540.765,538.687,0.0
51465.0,STARLINK-3401,PAYLOAD,2023-04-13 23:40:47,15.08851889,0.0001366,53.2182,0.8015,82.9692,277.1456,0.00028557,4.261e-05,0.0,0 STARLINK-3401,1 51465U 22010K   23103.98665764  .00004261  00000-0  28557-3 0  9999,2 51465  53.2182   0.8015 0001366  82.9692 277.1456 15.08851889 67198,6917.844,95.437,540.654,538.764,0.0
51465.0,STARLINK-3401,PAYLOAD,2023-04-15 02:42:20,15.08844056,8.85e-05,53.2174,355.743,95.4954,264.6139,0.00012639,1.725e-05,0.0,0 STARLINK-3401,1 51465U 22010K   23105.11274116  .00001725  00000-0  12639-3 0  9999,2 51465  53.2174 355.7430 0000885  95.4954 264.6139 15.08844056 67363,6917.868,95.437,540.345,539.121,0.0
51465.0,STARLINK-3401,PAYLOAD,2023-04-15 21:46:58,15.08844659,7.74e-05,53.2174,352.1737,97.7238,262.3842,0.00011813,1.593e-05,0.0,0 STARLINK-3401,1 51465U 22010K   23105.90762104  .00001593  00000-0  11813-3 0  9991,2 51465  53.2174 352.1737 0000774  97.7238 262.3842 15.08844659 67489,6917.866,95.437,540.267,539.196,0.0
51465.0,STARLINK-3401,PAYLOAD,2023-04-16 02:33:07,15.08858682,8.16e-05,53.2174,351.2831,114.4264,245.6814,0.00042411,6.472e-05,0.0,0 STARLINK-3401,1 51465U 22010K   23106.10633409  .00006472  00000-0  42411-3 0  9998,2 51465  53.2174 351.2831 0000816 114.4264 245.6814 15.08858682 67515,6917.823,95.436,540.253,539.124,0.0
51465.0,STARLINK-3401,PAYLOAD,2023-04-16 21:37:45,15.08839311,9.49e-05,53.2178,347.7141,125.6862,234.4219,4.5581e-05,4.38e-06,0.0,0 STARLINK-3401,1 51465U 22010K   23106.90122221  .00000438  00000-0  45581-4 0  9999,2 51465  53.2178 347.7141 0000949 125.6862 234.4219 15.08839311 67634,6917.882,95.438,540.404,539.091,0.0
51465.0,STARLINK-3401,PAYLOAD,2023-04-17 02:23:54,15.08842543,5.69e-05,53.2174,346.8231,95.1896,264.9161,0.00012775,1.746e-05,0.0,0 STARLINK-3401,1 51465U 22010K   23107.09994179  .00001746  00000-0  12775-3 0  9990,2 51465  53.2174 346.8231 0000569  95.1896 264.9161 15.08842543 67664,6917.873,95.437,540.131,539.344,0.0
51465.0,STARLINK-3401,PAYLOAD,2023-04-17 21:28:32,15.08840194,7.45e-05,53.2172,343.2547,90.8303,269.2775,2.6553e-05,1.35e-06,0.0,0 STARLINK-3401,1 51465U 22010K   23107.89482524  .00000135  00000-0  26553-4 0  9995,2 51465  53.2172 343.2547 0000745  90.8303 269.2775 15.08840194 67786,6917.88,95.438,540.26,539.229,0.0
51465.0,STARLINK-3401,PAYLOAD,2023-04-18 00:39:19,15.08844835,6.33e-05,53.2171,342.6601,91.1013,269.0052,0.00016384,2.321e-05,0.0,0 STARLINK-3401,1 51465U 22010K   23108.02730407  .00002321  00000-0  16384-3 0  9996,2 51465  53.2171 342.6601 0000633  91.1013 269.0052 15.08844835 67802,6917.866,95.437,540.169,539.293,0.0
